COSMO-SKYMED 1          
1 31598U 07023A   26200.81675231  .00001671  00000+0  14956-3 0  9993
2 31598  97.8852  32.9491 0001760  98.5517 261.5904 14.97234347 34675
COSMOS 2428             
1 31792U 07029A   26200.63897794  .00000295  00000+0  18382-3 0  9993
2 31792  70.9383 286.3418 0007268  72.4374 287.7540 14.12937401982730
SL-16 R/B               
1 31793U 07029B   26200.65274529  .00000295  00000+0  17775-3 0  9996
2 31793  70.9742 254.9824 0001910 257.9937 272.1255 14.14854318984038
KORONAS-FOTON           
1 33504U 09003A   26200.82818941  .00008112  00000+0  16304-3 0  9996
2 33504  82.4308 138.1947 0011780  47.8461 312.3787 15.46370384966140
CZ-2C R/B               
1 37731U 11030B   26200.79745646  .00000419  00000+0  59267-4 0  9990
2 37731  97.8672 155.6005 0050686 280.7558 138.2648 14.81536964809651
H-2A R/B                
1 38341U 12025E   26200.80156750  .00000881  00000+0  83755-4 0  9999
2 38341  98.4847 178.6432 0042687 239.4186 120.2818 14.95844697767966
SHIJIAN-16 (SJ-16)      
1 39358U 13057A   26200.88091648  .00000404  00000+0  41938-4 0  9994
2 39358  74.9737 294.7599 0015628 153.3546 206.8449 14.92676803691220
SL-4 R/B                
1 39679U 14021B   26200.85079017  .00006164  00000+0  13007-3 0  9999
2 39679  51.6065  50.6776 0089465 225.6465 133.7165 15.42539905676651
ALOS-2                  
1 39766U 14029A   26200.80584179  .00000211  00000+0  35143-4 0  9992
2 39766  97.9228 297.5037 0001586  90.5623 269.5770 14.79472005656404
YAOGAN-29               
1 41038U 15069A   26200.83208299  .00000048  00000+0  12540-4 0  9995
2 41038  98.0016 229.5147 0000277   3.4151 356.7064 14.83107260575462
ASTRO-H (HITOMI)        
1 41337U 16012A   26200.74249262  .00001145  00000+0  61804-4 0  9997
2 41337  30.9975 223.9139 0009660 220.9953 138.9959 15.10642483572218
HXMT (HUIYAN)           
1 42758U 17034A   26200.82380360  .00002097  00000+0  10961-3 0  9998
2 42758  43.0153   1.2782 0031711 349.8676  10.1530 15.18710911502629
SAOCOM 1A               
1 43641U 18076A   26200.81117049  .00000445  00000+0  62413-4 0  9993
2 43641  97.8890  27.0855 0001456  86.9472 273.1908 14.82149640420937
H-2A R/B                
1 43682U 18084L   26200.23599307  .00010996  00000+0  22384-3 0  9998
2 43682  98.8521  86.1545 0020300 285.2984  74.6017 15.46296554426071
SAOCOM 1B               
1 46265U 20059A   26200.84236821 -.00000064  00000+0 -14438-5 0  9999
2 46265  97.8896  26.2129 0001496  83.6553 276.4830 14.82144566318322
CSS (TIANHE)            
1 48274U 21035A   26200.82979203  .00011146  00000+0  14750-3 0  9998
2 48274  41.4682 123.7405 0001962 307.3451  52.7208 15.58206141298269
COSMOS 2550             
1 48865U 21056A   26200.88895846  .00002945  00000+0  95236-4 0  9999
2 48865  67.1440   0.9840 0008533 269.6003  90.4173 15.33855900283737
CZ-2C R/B               
1 52794U 22058K   26200.46326684  .00024060  00000+0  24806-3 0  9997
2 52794  50.1861 355.2840 0030109  40.5876 319.7335 15.64075932230693
CZ-2C R/B               
1 54039U 22132E   26200.45842613  .00042024  00000+0  27843-3 0  9992
2 54039  97.2897 209.0185 0008747 321.9284  38.1362 15.75369600211026
GSLV R/B                
1 54149U 22138AN  26200.79794801  .00001507  00000+0  12652-3 0  9995
2 54149  87.3815 122.0338 0022984  36.9321 323.3487 14.97395425203694
XRISM                   
1 57800U 23137A   26200.19546554  .00002220  00000+0  11825-3 0  9990
2 57800  31.0011 152.2226 0007840 285.9268  74.0507 15.12686798157714
ACS3                    
1 59588U 24077B   26200.70021256  .00003608  00000+0  25000-2 0  9993
2 59588  97.1775 112.2879 0129376  31.3060 329.5729 13.95428126112578
SPACEMOBILE-003         
1 61045U 24163A   26200.87957500  .00001539  00000+0  83736-4 0  9991
2 61045  52.9673 159.1017 0004268 209.3875 150.6879 15.20720283102748
SPACEMOBILE-005         
1 61046U 24163B   26200.86299743  .00002757  00000+0  13835-3 0  9994
2 61046  52.9750 159.1324 0008503 210.2048 149.8457 15.20725340102735
SPACEMOBILE-001         
1 61047U 24163C   26200.26985510  .00000003  00000+0  14868-4 0  9993
2 61047  52.9694 161.5697 0006820 206.0016 154.0637 15.20700176102649
SPACEMOBILE-002         
1 61048U 24163D   26200.18806198  .00010534  00000+0  48876-3 0  9994
2 61048  52.9793 161.9891 0004752 205.9492 154.1265 15.20578455102638
SPACEMOBILE-004         
1 61049U 24163E   26200.30192750  .00010681  00000+0  49323-3 0  9992
2 61049  52.9703 161.2390 0005784 245.4270 114.6122 15.20724685102659
CZ-8A R/B               
1 66004U 25231K   26200.54376367 -.00000089  00000+0  26997-4 0  9994
2 66004  50.0033 261.6580 0116547 337.9306  21.6615 14.30162871 39570
SZ-21 MODULE            
1 66515U 25246C   26200.74955757  .00033870  00000+0  18470-3 0  9994
2 66515  41.4719 104.0943 0009162 249.2257 110.7607 15.79127138 38884
SPACEMOBILE-006         
1 67232U 25309A   26200.35692778  .00001577  00000+0  90416-4 0  9999
2 67232  52.9938 184.2683 0009693 229.6754 130.3394 15.18667029 31486
