OBJECT_NAME,OBJECT_ID,EPOCH,MEAN_MOTION,ECCENTRICITY,INCLINATION,RA_OF_ASC_NODE,ARG_OF_PERICENTER,MEAN_ANOMALY,EPHEMERIS_TYPE,CLASSIFICATION_TYPE,NORAD_CAT_ID,ELEMENT_SET_NO,REV_AT_EPOCH,BSTAR,MEAN_MOTION_DOT,MEAN_MOTION_DDOT
COSMO-SKYMED 1,2007-023A,2026-07-19T19:36:07.399584,14.97234347,.000176,97.8852,32.9491,98.5517,261.5904,0,U,31598,999,3467,.14956E-3,.1671E-4,0
COSMOS 2428,2007-029A,2026-07-19T15:20:07.694016,14.12937401,.0007268,70.9383,286.3418,72.4374,287.7540,0,U,31792,999,98273,.18382E-3,.295E-5,0
SL-16 R/B,2007-029B,2026-07-19T15:39:57.193056,14.14854318,.000191,70.9742,254.9824,257.9937,272.1255,0,U,31793,999,98403,.17775E-3,.295E-5,0
KORONAS-FOTON,2009-003A,2026-07-19T19:52:35.565024,15.46370384,.001178,82.4308,138.1947,47.8461,312.3787,0,U,33504,999,96614,.16304E-3,.8112E-4,0
CZ-2C R/B,2011-030B,2026-07-19T19:08:20.238144,14.81536964,.0050686,97.8672,155.6005,280.7558,138.2648,0,U,37731,999,80965,.59267E-4,.419E-5,0
H-2A R/B,2012-025E,2026-07-19T19:14:15.432000,14.95844697,.0042687,98.4847,178.6432,239.4186,120.2818,0,U,38341,999,76796,.83755E-4,.881E-5,0
SHIJIAN-16 (SJ-16),2013-057A,2026-07-19T21:08:31.183872,14.92676803,.0015628,74.9737,294.7599,153.3546,206.8449,0,U,39358,999,69122,.41938E-4,.404E-5,0
SL-4 R/B,2014-021B,2026-07-19T20:25:08.270688,15.42539905,.0089465,51.6065,50.6776,225.6465,133.7165,0,U,39679,999,67665,.13007E-3,.6164E-4,0
ALOS-2,2014-029A,2026-07-19T19:20:24.730656,14.79472005,.0001586,97.9228,297.5037,90.5623,269.5770,0,U,39766,999,65640,.35143E-4,.211E-5,0
YAOGAN-29,2015-069A,2026-07-19T19:58:11.970336,14.83107260,.0000277,98.0016,229.5147,3.4151,356.7064,0,U,41038,999,57546,.1254E-4,.48E-6,0
ASTRO-H (HITOMI),2016-012A,2026-07-19T17:49:11.362368,15.10642483,.000966,30.9975,223.9139,220.9953,138.9959,0,U,41337,999,57221,.61804E-4,.1145E-4,0
HXMT (HUIYAN),2017-034A,2026-07-19T19:46:16.631040,15.18710911,.0031711,43.0153,1.2782,349.8676,10.1530,0,U,42758,999,50262,.10961E-3,.2097E-4,0
SAOCOM 1A,2018-076A,2026-07-19T19:28:05.130336,14.82149640,.0001456,97.8890,27.0855,86.9472,273.1908,0,U,43641,999,42093,.62413E-4,.445E-5,0
H-2A R/B,2018-084L,2026-07-19T05:39:49.801248,15.46296554,.00203006,98.8521,86.1545,285.2984,74.6017,0,U,43682,999,42607,.22384339E-3,.10996E-3,0
SAOCOM 1B,2020-059A,2026-07-19T20:13:00.613344,14.82144566,.0001496,97.8896,26.2129,83.6553,276.4830,0,U,46265,999,31832,-.14438E-5,-.64E-6,0
CSS (TIANHE),2021-035A,2026-07-19T19:54:54.031392,15.58206141,.0001962,41.4682,123.7405,307.3451,52.7208,0,U,48274,999,29826,.1475E-3,.11146E-3,0
COSMOS 2550,2021-056A,2026-07-19T21:20:06.010944,15.33855900,.0008533,67.1440,0.9840,269.6003,90.4173,0,U,48865,999,28373,.95236E-4,.2945E-4,0
CZ-2C R/B,2022-058K,2026-07-19T11:07:06.254976,15.64075932,.00301094,50.1861,355.2840,40.5876,319.7335,0,U,52794,999,23069,.24805896E-3,.2406E-3,0
CZ-2C R/B,2022-132E,2026-07-19T11:00:08.017632,15.75369600,.00087472,97.2897,209.0185,321.9284,38.1362,0,U,54039,999,21102,.278431E-3,.42024E-3,0
GSLV R/B,2022-138AN,2026-07-19T19:09:02.708064,14.97395425,.0022984,87.3815,122.0338,36.9321,323.3487,0,U,54149,999,20369,.12652E-3,.1507E-4,0
XRISM,2023-137A,2026-07-19T04:41:28.222656,15.12686798,.00078403,31.0011,152.2226,285.9268,74.0507,0,U,57800,999,15771,.11825372E-3,.222E-4,0
ACS3,2024-077B,2026-07-19T16:48:18.365184,13.95428126,.0129376,97.1775,112.2879,31.3060,329.5729,0,U,59588,999,11257,.25E-2,.3608E-4,0
SPACEMOBILE-003,2024-163A,2026-07-19T21:06:35.280000,15.20720283,.0004268,52.9673,159.1017,209.3875,150.6879,0,U,61045,999,10274,.83736E-4,.1539E-4,0
SPACEMOBILE-005,2024-163B,2026-07-19T20:42:42.977952,15.20725340,.0008503,52.9750,159.1324,210.2048,149.8457,0,U,61046,999,10273,.13835E-3,.2757E-4,0
SPACEMOBILE-001,2024-163C,2026-07-19T06:28:35.480640,15.20700176,.000682,52.9694,161.5697,206.0016,154.0637,0,U,61047,999,10264,.14868E-4,.3E-7,0
SPACEMOBILE-002,2024-163D,2026-07-19T04:30:48.555072,15.20578455,.0004752,52.9793,161.9891,205.9492,154.1265,0,U,61048,999,10263,.48876E-3,.10534E-3,0
SPACEMOBILE-004,2024-163E,2026-07-19T07:14:46.536000,15.20724685,.0005784,52.9703,161.2390,245.4270,114.6122,0,U,61049,999,10265,.49323E-3,.10681E-3,0
CZ-8A R/B,2025-231K,2026-07-19T13:03:01.181088,14.30162871,.0116547,50.0033,261.6580,337.9306,21.6615,0,U,66004,999,3957,.26997E-4,-.89E-6,0
SZ-21 MODULE,2025-246C,2026-07-19T17:59:21.774048,15.79127138,.0009162,41.4719,104.0943,249.2257,110.7607,0,U,66515,999,3888,.1847E-3,.3387E-3,0
SPACEMOBILE-006,2025-309A,2026-07-19T08:33:58.560192,15.18667029,.00096935,52.9938,184.2683,229.6754,130.3394,0,U,67232,999,3148,.90415604E-4,.1577E-4,0
